NORAD_CAT_ID,OBJECT_NAME,OBJECT_TYPE,EPOCH,MEAN_MOTION,ECCENTRICITY,INCLINATION,RA_OF_ASC_NODE,ARG_OF_PERICENTER,MEAN_ANOMALY,BSTAR,MEAN_MOTION_DOT,MEAN_MOTION_DDOT,TLE_LINE0,TLE_LINE1,TLE_LINE2,SEMIMAJOR_AXIS,PERIOD,APOGEE,PERIGEE,DECAYED
52598.0,STARLINK-4019,PAYLOAD,2024-07-23 01:21:53,15.08823701,0.0001448,53.2179,73.5304,126.8926,233.2199,0.0004107,6.251e-05,0.0,0 STARLINK-4019,1 52598U 22052A   24205.05686957  .00006251  00000-0  41070-3 0  9998,2 52598  53.2179  73.5304 0001448 126.8926 233.2199 15.08823701121380,6917.93,95.439,540.797,538.793,0.0
52598.0,STARLINK-4019,PAYLOAD,2024-07-23 07:43:25,15.08838916,0.0001033,53.2177,72.3453,127.4718,232.6368,0.00044808,6.85e-05,0.0,0 STARLINK-4019,1 52598U 22052A   24205.32182292  .00006850  00000-0  44808-3 0  9998,2 52598  53.2177  72.3453 0001033 127.4718 232.6368 15.08838916121426,6917.884,95.438,540.463,539.034,0.0
52598.0,STARLINK-4019,PAYLOAD,2024-07-23 15:40:23,15.08821233,6.21e-05,53.2177,70.8526,103.2084,256.8978,-0.00030073,-5.068e-05,0.0,0 STARLINK-4019,1 52598U 22052A   24205.65305239 -.00005068  00000-0 -30073-3 0  9993,2 52598  53.2177  70.8526 0000621 103.2084 256.8978 15.08821233121474,6917.938,95.439,540.232,539.373,0.0
52598.0,STARLINK-4019,PAYLOAD,2024-07-24 13:55:46,15.08834996,0.0001621,53.2175,66.6913,119.2875,240.8279,-2.4771e-05,-6.82e-06,0.0,0 STARLINK-4019,1 52598U 22052A   24206.58039554 -.00000682  00000-0 -24771-4 0  9996,2 52598  53.2175  66.6913 0001621 119.2875 240.8279 15.08834996121614,6917.896,95.438,540.882,538.639,0.0
52598.0,STARLINK-4019,PAYLOAD,2024-07-25 01:03:27,15.088402,0.0001253,53.2147,64.6129,95.3441,264.7695,2.4902e-05,1.08e-06,0.0,0 STARLINK-4019,1 52598U 22052A   24207.04407217  .00000108  00000-0  24902-4 0  9990,2 52598  53.2147  64.6129 0001253  95.3441 264.7695 15.08840200121683,6917.88,95.438,540.612,538.878,0.0
52598.0,STARLINK-4019,PAYLOAD,2024-07-25 21:43:29,15.08806984,0.0001305,53.2148,60.746,68.6885,291.4246,0.00043783,6.681e-05,0.0,0 STARLINK-4019,1 52598U 22052A   24207.90520429  .00006681  00000-0  43783-3 0  9995,2 52598  53.2148  60.7460 0001305  68.6885 291.4246 15.08806984122245,6917.981,95.44,540.749,538.944,0.0
52598.0,STARLINK-4019,PAYLOAD,2024-07-25 23:18:53,15.08795234,0.0001267,53.2149,60.4489,72.6068,287.5062,0.00060954,9.414e-05,0.0,0 STARLINK-4019,1 52598U 22052A   24207.97144794  .00009414  00000-0  60954-3 0  9995,2 52598  53.2149  60.4489 0001267  72.6068 287.5062 15.08795234121829,6918.017,95.44,540.759,539.006,0.0
52598.0,STARLINK-4019,PAYLOAD,2024-07-26 21:34:15,15.08847684,8.82e-05,53.2163,56.2855,92.5385,267.5708,5.1265e-05,5.28e-06,0.0,0 STARLINK-4019,1 52598U 22052A   24208.89878813  .00000528  00000-0  51265-4 0  9996,2 52598  53.2163  56.2855 0000882  92.5385 267.5708 15.08847684122395,6917.857,95.437,540.332,539.112,0.0
52598.0,STARLINK-4019,PAYLOAD,2024-07-27 11:52:42,15.08898282,0.0001469,53.2169,53.6088,95.5359,264.5801,-0.00076479,-0.00012458,0.0,0 STARLINK-4019,1 52598U 22052A   24209.49493288 -.00012458  00000-0 -76479-3 0  9992,2 52598  53.2169  53.6088 0001469  95.5359 264.5801 15.08898282122050,6917.702,95.434,540.583,538.551,0.0
52598.0,STARLINK-4019,PAYLOAD,2024-07-27 21:25:03,15.08838653,0.0001117,53.2174,51.8254,74.3545,285.757,-8.3692e-06,-4.21e-06,0.0,0 STARLINK-4019,1 52598U 22052A   24209.89239739 -.00000421  00000-0 -83692-5 0  9999,2 52598  53.2174  51.8254 0001117  74.3545 285.7570 15.08838653122541,6917.885,95.438,540.522,538.977,0.0
52598.0,STARLINK-4019,PAYLOAD,2024-07-28 05:21:58,15.08844374,8.04e-05,53.2198,50.3362,93.7839,266.3245,3.7684e-05,3.12e-06,0.0,0 STARLINK-4019,1 52598U 22052A   24210.22359049  .00000312  00000-0  37684-4 0  9991,2 52598  53.2198  50.3362 0000804  93.7839 266.3245 15.08844374122163,6917.867,95.437,540.288,539.176,0.0
52598.0,STARLINK-4019,PAYLOAD,2024-07-28 13:18:54,15.08829599,7.54e-05,53.2191,48.8526,69.9016,290.2057,-1.5517e-05,-5.34e-06,0.0,0 STARLINK-4019,1 52598U 22052A   24210.55480139 -.00000534  00000-0 -15517-4 0  9991,2 52598  53.2191  48.8526 0000754  69.9016 290.2057 15.08829599122211,6917.912,95.438,540.299,539.256,0.0
52598.0,STARLINK-4019,PAYLOAD,2024-07-28 19:40:26,15.08841133,0.0001112,53.2173,47.6617,90.2861,269.8259,5.0074e-05,5.09e-06,0.0,0 STARLINK-4019,1 52598U 22052A   24210.81975341  .00000509  00000-0  50074-4 0  9991,2 52598  53.2173  47.6617 0001112  90.2861 269.8259 15.08841133122251,6917.877,95.437,540.511,538.973,0.0
52598.0,STARLINK-4019,PAYLOAD,2024-07-28 21:15:49,15.08841823,0.0001098,53.2174,47.3642,95.6255,264.4862,5.9979e-05,6.67e-06,0.0,0 STARLINK-4019,1 52598U 22052A   24210.88599275  .00000667  00000-0  59979-4 0  9994,2 52598  53.2174  47.3642 0001098  95.6255 264.4862 15.08841823122691,6917.875,95.437,540.499,538.98,0.0
52598.0,STARLINK-4019,PAYLOAD,2024-07-29 13:09:41,15.08834034,0.0001265,53.2176,44.3903,119.3124,240.7995,0.00018185,2.607e-05,0.0,0 STARLINK-4019,1 52598U 22052A   24211.54839195  .00002607  00000-0  18185-3 0  9995,2 52598  53.2176  44.3903 0001265 119.3124 240.7995 15.08834034122796,6917.899,95.438,540.639,538.889,0.0
52598.0,STARLINK-4019,PAYLOAD,2024-07-29 19:31:13,15.0883785,0.0001335,53.218,43.2026,97.5519,262.5625,0.00015012,2.102e-05,0.0,0 STARLINK-4019,1 52598U 22052A   24211.81335229  .00002102  00000-0  15012-3 0  9990,2 52598  53.2180  43.2026 0001335  97.5519 262.5625 15.08837850122834,6917.887,95.438,540.675,538.828,0.0
52598.0,STARLINK-4019,PAYLOAD,2024-07-30 00:17:22,15.08845602,9.83e-05,53.2177,42.3107,91.4615,268.6489,0.0001312,1.801e-05,0.0,0 STARLINK-4019,1 52598U 22052A   24212.01206754  .00001801  00000-0  13120-3 0  9996,2 52598  53.2177  42.3107 0000983  91.4615 268.6489 15.08845602122433,6917.863,95.437,540.408,539.048,0.0
52598.0,STARLINK-4019,PAYLOAD,2024-07-30 13:00:28,15.08837368,0.0001079,53.2169,39.931,101.7505,258.3608,8.8495e-05,1.121e-05,0.0,0 STARLINK-4019,1 52598U 22052A   24212.54199340  .00001121  00000-0  88495-4 0  9999,2 52598  53.2169  39.9310 0001079 101.7505 258.3608 15.08837368122510,6917.888,95.438,540.5,539.007,0.0
52598.0,STARLINK-4019,PAYLOAD,2024-07-30 14:35:51,15.08832901,8.09e-05,53.2173,39.634,76.6918,283.4164,9.2879e-05,1.191e-05,0.0,0 STARLINK-4019,1 52598U 22052A   24212.60823626  .00001191  00000-0  92879-4 0  9995,2 52598  53.2173  39.6340 0000809  76.6918 283.4164 15.08832901122955,6917.902,95.438,540.327,539.207,0.0
52598.0,STARLINK-4019,PAYLOAD,2024-07-30 22:32:46,15.0884486,0.0001068,53.2175,38.1469,96.8841,263.2273,6.2878e-05,7.13e-06,0.0,0 STARLINK-4019,1 52598U 22052A   24212.93942916  .00000713  00000-0  62878-4 0  9990,2 52598  53.2175  38.1469 0001068  96.8841 263.2273 15.08844860123001,6917.866,95.437,540.469,538.992,0.0
52598.0,STARLINK-4019,PAYLOAD,2024-07-31 00:08:09,15.08847228,0.000112,53.2175,37.8496,102.8046,257.3071,9.0106e-05,1.147e-05,0.0,0 STARLINK-4019,1 52598U 22052A   24213.00566649  .00001147  00000-0  90106-4 0  9991,2 52598  53.2175  37.8496 0001120 102.8046 257.3071 15.08847228122584,6917.858,95.437,540.498,538.948,0.0
52598.0,STARLINK-4019,PAYLOAD,2024-07-31 12:51:16,15.08822641,0.0001196,53.2175,35.471,106.94,253.1723,-8.8258e-05,-1.691e-05,0.0,0 STARLINK-4019,1 52598U 22052A   24213.53560654 -.00001691  00000-0 -88258-4 0  9990,2 52598  53.2175  35.4710 0001196 106.9400 253.1723 15.08822641122668,6917.933,95.439,540.626,538.971,0.0
52598.0,STARLINK-4019,PAYLOAD,2024-07-31 14:26:39,15.08823487,0.0001204,53.2174,35.1734,107.0626,253.0498,-8.3537e-05,-1.616e-05,0.0,0 STARLINK-4019,1 52598U 22052A   24213.60184640 -.00001616  00000-0 -83537-4 0  9997,2 52598  53.2174  35.1734 0001204 107.0626 253.0498 15.08823487123109,6917.931,95.439,540.629,538.963,0.0
52598.0,STARLINK-4019,PAYLOAD,2024-07-31 20:48:11,15.08833639,0.0001085,53.2179,33.9844,101.7474,258.364,-3.2542e-05,-8.06e-06,0.0,0 STARLINK-4019,1 52598U 22052A   24213.86680081 -.00000806  00000-0 -32542-4 0  9995,2 52598  53.2179  33.9844 0001085 101.7474 258.3640 15.08833639122714,6917.9,95.438,540.515,539.014,0.0
52598.0,STARLINK-4019,PAYLOAD,2024-07-31 22:23:34,15.08835593,0.0001098,53.2177,33.6868,101.3409,258.7706,-1.9217e-05,-5.94e-06,0.0,0 STARLINK-4019,1 52598U 22052A   24213.93303942 -.00000594  00000-0 -19217-4 0  9999,2 52598  53.2177  33.6868 0001098 101.3409 258.7706 15.08835593123150,6917.894,95.438,540.518,538.999,0.0
52598.0,STARLINK-4019,PAYLOAD,2024-08-01 04:45:06,15.0884566,0.0001071,53.2178,32.4973,102.1693,257.9419,4.762e-05,4.7e-06,0.0,0 STARLINK-4019,1 52598U 22052A   24214.19799140  .00000470  00000-0  47620-4 0  9997,2 52598  53.2178  32.4973 0001071 102.1693 257.9419 15.08845660122764,6917.863,95.437,540.469,538.987,0.0
52598.0,STARLINK-4019,PAYLOAD,2024-08-01 12:42:02,15.088367,0.0001071,53.2178,31.0102,98.8142,261.2971,0.00015139,2.122e-05,0.0,0 STARLINK-4019,1 52598U 22052A   24214.52919778  .00002122  00000-0  15139-3 0  9990,2 52598  53.2178  31.0102 0001071  98.8142 261.2971 15.08836700122815,6917.89,95.438,540.496,539.015,0.0
52598.0,STARLINK-4019,PAYLOAD,2024-08-01 14:17:25,15.08842261,0.0001091,53.2171,30.713,99.1033,261.0082,0.00023419,3.441e-05,0.0,0 STARLINK-4019,1 52598U 22052A   24214.59543563  .00003441  00000-0  23419-3 0  9997,2 52598  53.2171  30.7130 0001091  99.1033 261.0082 15.08842261123259,6917.873,95.437,540.493,538.984,0.0
52598.0,STARLINK-4019,PAYLOAD,2024-08-01 20:38:57,15.08862585,9.97e-05,53.2168,29.5238,100.9561,259.1544,0.0012071,0.00018987,0.0,0 STARLINK-4019,1 52598U 22052A   24214.86039338  .00018987  00000-0  12071-2 0  9999,2 52598  53.2168  29.5238 0000997 100.9561 259.1544 15.08862585122869,6917.811,95.436,540.366,538.987,0.0
52598.0,STARLINK-4019,PAYLOAD,2024-08-01 22:14:21,15.08864013,9.69e-05,53.2166,29.2268,97.8804,262.2298,0.0013762,0.00021696,0.0,0 STARLINK-4019,1 52598U 22052A   24214.92663265  .00021696  00000-0  13762-2 0  9997,2 52598  53.2166  29.2268 0000969  97.8804 262.2298 15.08864013123309,6917.807,95.436,540.342,539.002,0.0
